     3.03           N: GNSS NAV DATA    M: Mixed            RINEX VERSION / TYPE
RTKCONV 2.4.3 b34                       20230628 074031 UTC PGM / RUN BY / DATE 
format: RINEX                                               COMMENT             
log: C:\Users\xikun\Dropbox\dataset\urbanNavWhampoa0521\2023COMMENT             
log: C:\Users\xikun\Dropbox\dataset\urbanNavWhampoa0521\2023COMMENT             
log: C:\Users\xikun\Dropbox\dataset\urbanNavWhampoa0521\2023COMMENT             
log: C:\Users\xikun\Dropbox\dataset\urbanNavWhampoa0521\2023COMMENT             
log: C:\Users\xikun\Dropbox\dataset\urbanNavWhampoa0521\2023COMMENT             
                                                            END OF HEADER       
C16 2021 05 21 04 00 00 -.849769916385D-03 -.222986074050D-10  .000000000000D+00
      .100000000000D+01 -.235140625000D+03  .109325981601D-08  .209515629476D+00
     -.739982351661D-05  .375065521803D-02  .224490649998D-04  .649330346489D+04
      .446400000000D+06  .148080289364D-06 -.954738130093D+00 -.721774995327D-07
      .960539893496D+00 -.449156250000D+03 -.241982669410D+01 -.168078428953D-08
     -.382158783785D-10  .000000000000D+00  .802000000000D+03  .000000000000D+00
      .200000000000D+01  .000000000000D+00 -.350000006755D-08  .399999988687D-08
      .446400000000D+06  .000000000000D+00
C19 2021 05 20 22 00 00  .842271139845D-03  .141389122632D-10  .000000000000D+00
      .100000000000D+01 -.904375000000D+02  .393373511542D-08 -.115877548831D+01
     -.443542376161D-05  .103957438842D-02  .629248097539D-05  .528262608719D+04
      .424800000000D+06 -.325962901115D-08 -.190358413526D+01 -.642612576485D-07
      .965659887336D+00  .234046875000D+03 -.111357231152D+01 -.697564761509D-08
     -.254653464982D-09  .000000000000D+00  .802000000000D+03  .000000000000D+00
      .200000000000D+01  .000000000000D+00  .122000001213D-07  .122000001213D-07
      .424800000000D+06  .100000000000D+01
C20 2021 05 20 20 00 00 -.908602494746D-03  .159996460525D-10  .000000000000D+00
      .100000000000D+01 -.875156250000D+02  .384373155526D-08 -.174808676317D+01
     -.433810055256D-05  .941562466323D-03  .650994479656D-05  .528262980080D+04
      .417600000000D+06 -.107102096081D-07 -.190291269975D+01 -.176951289177D-07
      .965658621912D+00  .230953125000D+03 -.739830145078D+00 -.692671697777D-08
     -.237152741889D-09  .000000000000D+00  .802000000000D+03  .000000000000D+00
      .200000000000D+01  .000000000000D+00  .230000001267D-07  .230000001267D-07
      .417600000000D+06  .100000000000D+01
C21 2021 05 21 05 00 00 -.939559075050D-03  .282618373149D-11  .000000000000D+00
      .100000000000D+01 -.103500000000D+03  .410052791722D-08  .472162503761D+00
     -.501982867718D-05  .874603400007D-03  .574719160795D-05  .528262404060D+04
      .450000000000D+06  .535510480404D-07 -.190145101491D+01  .186264514923D-08
      .964933206187D+00  .250171875000D+03 -.903628664401D+00 -.705029368220D-08
     -.165364028026D-09  .000000000000D+00  .802000000000D+03  .000000000000D+00
      .200000000000D+01  .000000000000D+00  .141000002785D-07  .141000002785D-07
      .450000000000D+06  .100000000000D+01
C22 2021 05 21 05 00 00 -.954825896770D-03  .286792811721D-11  .000000000000D+00
      .100000000000D+01 -.107484375000D+03  .414017264916D-08  .722278312900D+00
     -.523263588548D-05  .716815120541D-03  .650854781270D-05  .528262121010D+04
      .450000000000D+06  .428408384323D-07 -.190153562277D+01  .139698386192D-07
      .964941809608D+00  .235000000000D+03 -.372767685990D+00 -.703707891958D-08
     -.188936435941D-09  .000000000000D+00  .802000000000D+03  .000000000000D+00
      .200000000000D+01  .000000000000D+00  .165999995971D-07  .165999995971D-07
      .450510000000D+06  .100000000000D+01
C23 2021 05 21 05 00 00 -.912431511097D-03 -.986233317235D-11  .000000000000D+00
      .100000000000D+01  .667656250000D+02  .431803703904D-08 -.303531273477D+01
      .331550836563D-05  .168256810866D-03  .605965033174D-05  .528261918259D+04
      .450000000000D+06  .530853867531D-07  .202591098390D+00  .414438545704D-07
      .950061630109D+00  .231500000000D+03 -.183279177975D+01 -.714779790911D-08
      .771460673121D-10  .000000000000D+00  .802000000000D+03  .000000000000D+00
      .200000000000D+01  .000000000000D+00  .250000002922D-07  .250000002922D-07
      .452790000000D+06  .100000000000D+01
C24 2021 05 21 05 00 00 -.858839484863D-03 -.152979851009D-10  .000000000000D+00
      .100000000000D+01  .678593750000D+02  .426517754448D-08  .261602946038D+01
      .311480835080D-05  .442142831162D-03  .619515776634D-05  .528261470795D+04
      .450000000000D+06  .107102096081D-07  .202409866246D+00  .526197254658D-07
      .950054451570D+00  .228625000000D+03  .392934503254D+00 -.702100688699D-08
      .300012480137D-10  .000000000000D+00  .802000000000D+03  .000000000000D+00
      .200000000000D+01  .000000000000D+00  .700000013509D-08  .700000013509D-08
      .450000000000D+06  .100000000000D+01
C25 2021 05 21 05 00 00 -.913804513402D-03  .602184968557D-11  .000000000000D+00
      .100000000000D+01  .691875000000D+02  .420231804910D-08  .188120848139D+01
      .333599746227D-05  .383180100471D-03  .638607889414D-05  .528262115669D+04
      .450000000000D+06 -.470317900181D-07  .177078654117D+00  .358559191227D-07
      .951328084142D+00  .227718750000D+03  .302729056600D+00 -.704672231677D-08
      .967897428872D-10  .000000000000D+00  .802000000000D+03  .000000000000D+00
      .200000000000D+01  .000000000000D+00  .900000018955D-09  .900000018955D-09
      .450000000000D+06  .100000000000D+01
C26 2021 05 21 05 00 00  .904121669009D-03 -.535660404921D-11  .000000000000D+00
      .100000000000D+01  .702812500000D+02  .434053815113D-08 -.282644730216D+01
      .345380976796D-05  .675527960993D-03  .619422644377D-05  .528261904144D+04
      .450000000000D+06 -.228174030781D-07  .177645161828D+00 -.735744833946D-07
      .951381236344D+00  .227593750000D+03  .289836636059D+00 -.712743952747D-08
      .796461716024D-10  .000000000000D+00  .802000000000D+03  .000000000000D+00
      .200000000000D+01  .000000000000D+00 -.489999996134D-08 -.489999996134D-08
      .450000000000D+06  .100000000000D+01
C27 2021 05 20 14 00 00  .534741557203D-03  .627942142728D-11  .000000000000D+00
      .100000000000D+01  .604687500000D+02  .360407859112D-08  .272560898215D+01
      .292761251330D-05  .751581857912D-03  .823801383376D-05  .528262832260D+04
      .396000000000D+06  .162981450558D-07  .230697478989D+01 -.302679836750D-07
      .966569218196D+00  .193953125000D+03  .103839505657D+01 -.682242706773D-08
     -.796461716024D-10  .000000000000D+00  .802000000000D+03  .000000000000D+00
      .200000000000D+01  .000000000000D+00 -.449999992824D-08 -.449999992824D-08
      .396000000000D+06  .100000000000D+01
C28 2021 05 20 12 00 00 -.722446711734D-04  .439737135594D-11  .000000000000D+00
      .100000000000D+01  .660468750000D+02  .355479090608D-08  .962437146102D+00
      .316649675369D-05  .696575734764D-04  .811368227005D-05  .528262866020D+04
      .388800000000D+06  .433064997196D-07  .230684944268D+01  .167638063431D-07
      .966464869713D+00  .198578125000D+03  .261493811910D+01 -.682921319495D-08
     -.517878726014D-10  .000000000000D+00  .802000000000D+03  .000000000000D+00
      .200000000000D+01  .000000000000D+00 -.439999991997D-08 -.439999991997D-08
      .388800000000D+06  .100000000000D+01
C29 2021 05 21 02 00 00  .395058305003D-03  .525357535253D-11  .000000000000D+00
      .100000000000D+01  .226562500000D+02  .343621464616D-08  .474174863149D+00
      .982079654932D-06  .332583906129D-03  .107362866402D-04  .528262797356D+04
      .439200000000D+06  .209547579289D-07  .226816403407D+01 -.419095158577D-08
      .965376151449D+00  .141796875000D+03  .128975840567D+01 -.674278100021D-08
      .100361323418D-09  .000000000000D+00  .802000000000D+03  .000000000000D+00
      .200000000000D+01  .000000000000D+00 -.200000002670D-09 -.200000002670D-09
      .439200000000D+06  .100000000000D+01
C30 2021 05 20 23 00 00  .467699370347D-03  .138822286999D-11  .000000000000D+00
      .100000000000D+01  .265000000000D+02  .363586583063D-08  .620305002536D+00
      .114645808935D-05  .529769109562D-03  .100010074675D-04  .528262045097D+04
      .428400000000D+06  .265426933765D-07  .226877279963D+01 -.372529029846D-08
      .965317838071D+00  .163187500000D+03  .486481325020D+00 -.675492417557D-08
      .960754323320D-10  .000000000000D+00  .802000000000D+03  .000000000000D+00
      .200000000000D+01  .000000000000D+00 -.979999992268D-08 -.979999992268D-08
      .428400000000D+06  .100000000000D+01
C21 2021 05 21 06 00 00 -.939549994655D-03  .267785793540D-11  .000000000000D+00
      .100000000000D+01 -.104656250000D+03  .412767198199D-08  .960830652853D+00
     -.507431104779D-05  .873949611560D-03  .617839396000D-05  .528262177849D+04
      .453600000000D+06  .526197254658D-07 -.190147639654D+01  .325962901115D-08
      .964932612242D+00  .241718750000D+03 -.904728573988D+00 -.705065072992D-08
     -.165721186773D-09  .000000000000D+00  .802000000000D+03  .000000000000D+00
      .200000000000D+01  .000000000000D+00  .141000002785D-07  .141000002785D-07
      .453600000000D+06  .100000000000D+01
